SL-3 R/B                
1 13403U 82079B   26003.15475288  .00010786  00000+0  44127-3 0  9990
2 13403  81.1477 270.4147 0026296  30.2947 329.9799 15.23892643367711
SL-14 R/B               
1 13553U 82092B   26003.09695992  .00000915  00000+0  10008-3 0  9994
2 13553  82.5668 202.7372 0020913 155.0552 328.0059 14.86580952319182
SL-3 R/B                
1 13819U 83010B   26002.70812190  .00021709  00000+0  47077-3 0  9998
2 13819  81.1048  83.0129 0016238 275.8909  84.0483 15.44128501347753
SL-3 R/B                
1 14208U 83075B   26003.15022743  .00017965  00000+0  49871-3 0  9992
2 14208  97.6101   5.3597 0024500 102.9394 257.4588 15.36655990320080
COSMOS 1536             
1 14699U 84013A   26002.96725973  .00012016  00000+0  51046-3 0  9991
2 14699  82.5443 173.1078 0015049 149.5535 210.6579 15.22835196262614
SL-14 R/B               
1 14820U 84027B   26003.10485832  .00000940  00000+0  10481-3 0  9997
2 14820  82.5430 306.5213 0017689 185.7953 174.3062 14.85902471237891
SL-8 R/B                
1 15483U 85006B   26003.11355148  .00000557  00000+0  19363-3 0  9990
2 15483  74.0459  21.8085 0019561 310.0633 113.4225 14.37737778144601
SL-12 R/B(2)            
1 15772U 85042D   26003.07088943  .00000138  00000+0  83668-4 0  9997
2 15772  71.1067 226.3569 0037001 230.0748 241.1939 14.21959109105066
SL-14 R/B               
1 15945U 85069B   26002.97495935  .00000932  00000+0  10271-3 0  9990
2 15945  82.5270  86.7400 0019980  53.0513 307.2529 14.86353197163071
SL-16 R/B               
1 16182U 85097B   26003.19321184  .00000191  00000+0  11981-3 0  9990
2 16182  71.0029 278.4388 0007988 339.0063 173.2090 14.16587420 77953
SL-14 R/B               
1 16496U 86006B   26002.96862248  .00001163  00000+0  12087-3 0  9992
2 16496  82.5280 321.5769 0077869 129.7777 231.0332 14.86704514139448
COSMOS 1743             
1 16719U 86034A   26003.11380370  .00046968  00000+0  73357-3 0  9999
2 16719  82.5352 142.3698 0005023 169.1551 190.9811 15.53594785170056
