CCSDS_OMM_VERS = 2.0
CREATION_DATE  = 
ORIGINATOR     = 

OBJECT_NAME    = SL-3 R/B
OBJECT_ID      = 1982-079B
CENTER_NAME    = EARTH
REF_FRAME      = TEME
TIME_SYSTEM    = UTC
MEAN_ELEMENT_THEORY = SGP/SGP4

EPOCH          = 2026-01-03T03:42:50.648832
MEAN_MOTION    = 15.23892643
ECCENTRICITY   = .0026296
INCLINATION    = 81.1477
RA_OF_ASC_NODE = 270.4147
ARG_OF_PERICENTER = 30.2947
MEAN_ANOMALY   = 329.9799

EPHEMERIS_TYPE = 0
CLASSIFICATION_TYPE = U
NORAD_CAT_ID   = 13403
ELEMENT_SET_NO = 999
REV_AT_EPOCH   = 36771
BSTAR          = .44127E-3
MEAN_MOTION_DOT = .10786E-3
MEAN_MOTION_DDOT = 0

CCSDS_OMM_VERS = 2.0
CREATION_DATE  = 
ORIGINATOR     = 

OBJECT_NAME    = SL-14 R/B
OBJECT_ID      = 1982-092B
CENTER_NAME    = EARTH
REF_FRAME      = TEME
TIME_SYSTEM    = UTC
MEAN_ELEMENT_THEORY = SGP/SGP4

EPOCH          = 2026-01-03T02:19:37.337088
MEAN_MOTION    = 14.86580952
ECCENTRICITY   = .0020913
INCLINATION    = 82.5668
RA_OF_ASC_NODE = 202.7372
ARG_OF_PERICENTER = 155.0552
MEAN_ANOMALY   = 328.0059

EPHEMERIS_TYPE = 0
CLASSIFICATION_TYPE = U
NORAD_CAT_ID   = 13553
ELEMENT_SET_NO = 999
REV_AT_EPOCH   = 31918
BSTAR          = .10008E-3
MEAN_MOTION_DOT = .915E-5
MEAN_MOTION_DDOT = 0

CCSDS_OMM_VERS = 2.0
CREATION_DATE  = 
ORIGINATOR     = 

OBJECT_NAME    = SL-3 R/B
OBJECT_ID      = 1983-010B
CENTER_NAME    = EARTH
REF_FRAME      = TEME
TIME_SYSTEM    = UTC
MEAN_ELEMENT_THEORY = SGP/SGP4

EPOCH          = 2026-01-02T16:59:41.732160
MEAN_MOTION    = 15.44128501
ECCENTRICITY   = .00162381
INCLINATION    = 81.1048
RA_OF_ASC_NODE = 83.0129
ARG_OF_PERICENTER = 275.8909
MEAN_ANOMALY   = 84.0483

EPHEMERIS_TYPE = 0
CLASSIFICATION_TYPE = U
NORAD_CAT_ID   = 13819
ELEMENT_SET_NO = 999
REV_AT_EPOCH   = 34775
BSTAR          = .47077422E-3
MEAN_MOTION_DOT = .21709E-3
MEAN_MOTION_DDOT = 0

CCSDS_OMM_VERS = 2.0
CREATION_DATE  = 
ORIGINATOR     = 

OBJECT_NAME    = SL-3 R/B
OBJECT_ID      = 1983-075B
CENTER_NAME    = EARTH
REF_FRAME      = TEME
TIME_SYSTEM    = UTC
MEAN_ELEMENT_THEORY = SGP/SGP4

EPOCH          = 2026-01-03T03:36:19.649952
MEAN_MOTION    = 15.36655990
ECCENTRICITY   = .00245
INCLINATION    = 97.6101
RA_OF_ASC_NODE = 5.3597
ARG_OF_PERICENTER = 102.9394
MEAN_ANOMALY   = 257.4588

EPHEMERIS_TYPE = 0
CLASSIFICATION_TYPE = U
NORAD_CAT_ID   = 14208
ELEMENT_SET_NO = 999
REV_AT_EPOCH   = 32008
BSTAR          = .49871E-3
MEAN_MOTION_DOT = .17965E-3
MEAN_MOTION_DDOT = 0

CCSDS_OMM_VERS = 2.0
CREATION_DATE  = 
ORIGINATOR     = 

OBJECT_NAME    = COSMOS 1536
OBJECT_ID      = 1984-013A
CENTER_NAME    = EARTH
REF_FRAME      = TEME
TIME_SYSTEM    = UTC
MEAN_ELEMENT_THEORY = SGP/SGP4

EPOCH          = 2026-01-02T23:12:51.240672
MEAN_MOTION    = 15.22835196
ECCENTRICITY   = .0015049
INCLINATION    = 82.5443
RA_OF_ASC_NODE = 173.1078
ARG_OF_PERICENTER = 149.5535
MEAN_ANOMALY   = 210.6579

EPHEMERIS_TYPE = 0
CLASSIFICATION_TYPE = U
NORAD_CAT_ID   = 14699
ELEMENT_SET_NO = 999
REV_AT_EPOCH   = 26261
BSTAR          = .51046E-3
MEAN_MOTION_DOT = .12016E-3
MEAN_MOTION_DDOT = 0

CCSDS_OMM_VERS = 2.0
CREATION_DATE  = 
ORIGINATOR     = 

OBJECT_NAME    = SL-14 R/B
OBJECT_ID      = 1984-027B
CENTER_NAME    = EARTH
REF_FRAME      = TEME
TIME_SYSTEM    = UTC
MEAN_ELEMENT_THEORY = SGP/SGP4

EPOCH          = 2026-01-03T02:30:59.758848
MEAN_MOTION    = 14.85902471
ECCENTRICITY   = .0017689
INCLINATION    = 82.5430
RA_OF_ASC_NODE = 306.5213
ARG_OF_PERICENTER = 185.7953
MEAN_ANOMALY   = 174.3062

EPHEMERIS_TYPE = 0
CLASSIFICATION_TYPE = U
NORAD_CAT_ID   = 14820
ELEMENT_SET_NO = 999
REV_AT_EPOCH   = 23789
BSTAR          = .10481E-3
MEAN_MOTION_DOT = .94E-5
MEAN_MOTION_DDOT = 0

CCSDS_OMM_VERS = 2.0
CREATION_DATE  = 
ORIGINATOR     = 

OBJECT_NAME    = SL-8 R/B
OBJECT_ID      = 1985-006B
CENTER_NAME    = EARTH
REF_FRAME      = TEME
TIME_SYSTEM    = UTC
MEAN_ELEMENT_THEORY = SGP/SGP4

EPOCH          = 2026-01-03T02:43:30.847872
MEAN_MOTION    = 14.37737778
ECCENTRICITY   = .0019561
INCLINATION    = 74.0459
RA_OF_ASC_NODE = 21.8085
ARG_OF_PERICENTER = 310.0633
MEAN_ANOMALY   = 113.4225

EPHEMERIS_TYPE = 0
CLASSIFICATION_TYPE = U
NORAD_CAT_ID   = 15483
ELEMENT_SET_NO = 999
REV_AT_EPOCH   = 14460
BSTAR          = .19363E-3
MEAN_MOTION_DOT = .557E-5
MEAN_MOTION_DDOT = 0

CCSDS_OMM_VERS = 2.0
CREATION_DATE  = 
ORIGINATOR     = 

OBJECT_NAME    = SL-12 R/B(2)
OBJECT_ID      = 1985-042D
CENTER_NAME    = EARTH
REF_FRAME      = TEME
TIME_SYSTEM    = UTC
MEAN_ELEMENT_THEORY = SGP/SGP4

EPOCH          = 2026-01-03T01:42:04.846752
MEAN_MOTION    = 14.21959109
ECCENTRICITY   = .0037001
INCLINATION    = 71.1067
RA_OF_ASC_NODE = 226.3569
ARG_OF_PERICENTER = 230.0748
MEAN_ANOMALY   = 241.1939

EPHEMERIS_TYPE = 0
CLASSIFICATION_TYPE = U
NORAD_CAT_ID   = 15772
ELEMENT_SET_NO = 999
REV_AT_EPOCH   = 10506
BSTAR          = .83668E-4
MEAN_MOTION_DOT = .138E-5
MEAN_MOTION_DDOT = 0

CCSDS_OMM_VERS = 2.0
CREATION_DATE  = 
ORIGINATOR     = 

OBJECT_NAME    = SL-14 R/B
OBJECT_ID      = 1985-069B
CENTER_NAME    = EARTH
REF_FRAME      = TEME
TIME_SYSTEM    = UTC
MEAN_ELEMENT_THEORY = SGP/SGP4

EPOCH          = 2026-01-02T23:23:56.487840
MEAN_MOTION    = 14.86353197
ECCENTRICITY   = .001998
INCLINATION    = 82.5270
RA_OF_ASC_NODE = 86.7400
ARG_OF_PERICENTER = 53.0513
MEAN_ANOMALY   = 307.2529

EPHEMERIS_TYPE = 0
CLASSIFICATION_TYPE = U
NORAD_CAT_ID   = 15945
ELEMENT_SET_NO = 999
REV_AT_EPOCH   = 16307
BSTAR          = .10271E-3
MEAN_MOTION_DOT = .932E-5
MEAN_MOTION_DDOT = 0

CCSDS_OMM_VERS = 2.0
CREATION_DATE  = 
ORIGINATOR     = 

OBJECT_NAME    = SL-16 R/B
OBJECT_ID      = 1985-097B
CENTER_NAME    = EARTH
REF_FRAME      = TEME
TIME_SYSTEM    = UTC
MEAN_ELEMENT_THEORY = SGP/SGP4

EPOCH          = 2026-01-03T04:38:13.502976
MEAN_MOTION    = 14.16587420
ECCENTRICITY   = .0007988
INCLINATION    = 71.0029
RA_OF_ASC_NODE = 278.4388
ARG_OF_PERICENTER = 339.0063
MEAN_ANOMALY   = 173.2090

EPHEMERIS_TYPE = 0
CLASSIFICATION_TYPE = U
NORAD_CAT_ID   = 16182
ELEMENT_SET_NO = 999
REV_AT_EPOCH   = 7795
BSTAR          = .11981E-3
MEAN_MOTION_DOT = .191E-5
MEAN_MOTION_DDOT = 0

CCSDS_OMM_VERS = 2.0
CREATION_DATE  = 
ORIGINATOR     = 

OBJECT_NAME    = SL-14 R/B
OBJECT_ID      = 1986-006B
CENTER_NAME    = EARTH
REF_FRAME      = TEME
TIME_SYSTEM    = UTC
MEAN_ELEMENT_THEORY = SGP/SGP4

EPOCH          = 2026-01-02T23:14:48.982272
MEAN_MOTION    = 14.86704514
ECCENTRICITY   = .0077869
INCLINATION    = 82.5280
RA_OF_ASC_NODE = 321.5769
ARG_OF_PERICENTER = 129.7777
MEAN_ANOMALY   = 231.0332

EPHEMERIS_TYPE = 0
CLASSIFICATION_TYPE = U
NORAD_CAT_ID   = 16496
ELEMENT_SET_NO = 999
REV_AT_EPOCH   = 13944
BSTAR          = .12087E-3
MEAN_MOTION_DOT = .1163E-4
MEAN_MOTION_DDOT = 0

CCSDS_OMM_VERS = 2.0
CREATION_DATE  = 
ORIGINATOR     = 

OBJECT_NAME    = COSMOS 1743
OBJECT_ID      = 1986-034A
CENTER_NAME    = EARTH
REF_FRAME      = TEME
TIME_SYSTEM    = UTC
MEAN_ELEMENT_THEORY = SGP/SGP4

EPOCH          = 2026-01-03T02:43:52.639680
MEAN_MOTION    = 15.53594785
ECCENTRICITY   = .0005023
INCLINATION    = 82.5352
RA_OF_ASC_NODE = 142.3698
ARG_OF_PERICENTER = 169.1551
MEAN_ANOMALY   = 190.9811

EPHEMERIS_TYPE = 0
CLASSIFICATION_TYPE = U
NORAD_CAT_ID   = 16719
ELEMENT_SET_NO = 999
REV_AT_EPOCH   = 17005
BSTAR          = .73357E-3
MEAN_MOTION_DOT = .46968E-3
MEAN_MOTION_DDOT = 0

